{
    "links": {
        "self": "http://www.neowsapp.com/rest/v1/neo/3766012?api_key=iIulBulltgU6a56xZRHN4H3l9WmuAYTsLGpBGhQ2"
    },
    "id": "3766012",
    "neo_reference_id": "3766012",
    "name": "(2016 XL23)",
    "designation": "2016 XL23",
    "nasa_jpl_url": "http://ssd.jpl.nasa.gov/sbdb.cgi?sstr=3766012",
    "absolute_magnitude_h": 29.274,
    "estimated_diameter": {
        "kilometers": {
            "estimated_diameter_min": 0.0037132567,
            "estimated_diameter_max": 0.0083030945
        },
        "meters": {
            "estimated_diameter_min": 3.7132567279,
            "estimated_diameter_max": 8.3030944615
        },
        "miles": {
            "estimated_diameter_min": 0.00230731,
            "estimated_diameter_max": 0.0051593021
        },
        "feet": {
            "estimated_diameter_min": 12.1826012032,
            "estimated_diameter_max": 27.2411244332
        }
    },
    "is_potentially_hazardous_asteroid": false,
    "close_approach_data": [
        {
            "close_approach_date": "2016-11-30",
            "close_approach_date_full": "2016-Nov-30 03:39",
            "epoch_date_close_approach": 1480477140000,
            "relative_velocity": {
                "kilometers_per_second": "10.722454297",
                "kilometers_per_hour": "38600.8354692619",
                "miles_per_hour": "23985.0580169978"
            },
            "miss_distance": {
                "astronomical": "0.0016895757",
                "lunar": "0.6572449473",
                "kilometers": "252756.925923759",
                "miles": "157055.8709915142"
            },
            "orbiting_body": "Moon"
        },
        {
            "close_approach_date": "2016-11-30",
            "close_approach_date_full": "2016-Nov-30 12:54",
            "epoch_date_close_approach": 1480510440000,
            "relative_velocity": {
                "kilometers_per_second": "10.5999804429",
                "kilometers_per_hour": "38159.9295945167",
                "miles_per_hour": "23711.0962527707"
            },
            "miss_distance": {
                "astronomical": "0.0005798855",
                "lunar": "0.2255754595",
                "kilometers": "86749.635643885",
                "miles": "53903.724040213"
            },
            "orbiting_body": "Earth"
        },
        {
            "close_approach_date": "2019-12-27",
            "close_approach_date_full": "2019-Dec-27 06:24",
            "epoch_date_close_approach": 1577427840000,
            "relative_velocity": {
                "kilometers_per_second": "19.3251778076",
                "kilometers_per_hour": "69570.6401074828",
                "miles_per_hour": "43228.4902378967"
            },
            "miss_distance": {
                "astronomical": "0.3007593391",
                "lunar": "116.9953829099",
                "kilometers": "44992956.511967717",
                "miles": "27957326.7780678146"
            },
            "orbiting_body": "Earth"
        }
    ],
    "orbital_data": {
        "orbit_id": "2",
        "orbit_determination_date": "2017-04-06 08:21:31",
        "first_observation_date": "2016-12-01",
        "last_observation_date": "2016-12-02",
        "data_arc_in_days": 1,
        "observations_used": 16,
        "orbit_uncertainty": "7",
        "minimum_orbit_intersection": ".000903219",
        "jupiter_tisserand_invariant": "3.531",
        "epoch_osculation": "2459000.5",
        "eccentricity": ".5576949971727208",
        "semi_major_axis": "2.101408949726309",
        "inclination": "1.865728562842333",
        "ascending_node_longitude": "248.8886510409435",
        "orbital_period": "1112.664656953117",
        "perihelion_distance": ".929463691449965",
        "perihelion_argument": "145.5948137071664",
        "aphelion_distance": "3.273354208002653",
        "perihelion_time": "2458810.776294270187",
        "mean_anomaly": "61.38465317103211",
        "mean_motion": ".323547618548262",
        "equinox": "J2000",
        "orbit_class": {
            "orbit_class_type": "APO",
            "orbit_class_description": "Near-Earth asteroid orbits which cross the Earth’s orbit similar to that of 1862 Apollo",
            "orbit_class_range": "a (semi-major axis) > 1.0 AU; q (perihelion) < 1.017 AU"
        }
    },
    "is_sentry_object": false
}